LEMUR-2-AMANDA-SVANTE   
1 48269U 21034B   26068.77637527  .00030872  00000+0  11134-2 0  9996
2 48269  97.5829 144.8625 0002703 205.4721 154.6385 15.28469003265849
STARLINK-33635          
1 63065U 25035P   26068.25534891  .00037956  00000+0  13812-2 0  9990
2 63065  42.9971 149.5052 0000610 205.4970 154.5852 15.27591702 59669
